NORAD_CAT_ID,OBJECT_NAME,OBJECT_TYPE,EPOCH,MEAN_MOTION,ECCENTRICITY,INCLINATION,RA_OF_ASC_NODE,ARG_OF_PERICENTER,MEAN_ANOMALY,BSTAR,MEAN_MOTION_DOT,MEAN_MOTION_DDOT,TLE_LINE0,TLE_LINE1,TLE_LINE2,SEMIMAJOR_AXIS,PERIOD,APOGEE,PERIGEE,DECAYED
55631.0,STARLINK-5558,PAYLOAD,2023-12-13 18:27:27,14.98334823,0.0003,69.9997,104.1147,266.4335,93.6481,1.3624e-05,7e-07,0.0,0 STARLINK-5558,1 55631U 23021D   23347.76906292  .00000070  00000-0  13624-4 0  9995,2 55631  69.9997 104.1147 0003000 266.4335  93.6481 14.98334823 45938,6950.178,96.107,574.128,569.958,0.0
55631.0,STARLINK-5558,PAYLOAD,2023-12-14 12:04:55,14.98330388,0.0002695,70.0002,102.263,254.0126,106.0736,-4.3052e-07,-9.8e-07,0.0,0 STARLINK-5558,1 55631U 23021D   23348.50342482 -.00000098  00000-0 -43052-6 0  9995,2 55631  70.0002 102.2630 0002695 254.0126 106.0736 14.98330388 45747,6950.192,96.107,573.93,570.184,0.0
55631.0,STARLINK-5558,PAYLOAD,2023-12-14 13:41:04,14.98330098,0.0002884,69.9996,102.0939,259.5345,100.5489,-1.0102e-05,-2.14e-06,0.0,0 STARLINK-5558,1 55631U 23021D   23348.57018526 -.00000214  00000-0 -10102-4 0  9999,2 55631  69.9996 102.0939 0002884 259.5345 100.5489 14.98330098 46056,6950.193,96.107,574.062,570.053,0.0
55631.0,STARLINK-5558,PAYLOAD,2023-12-14 16:53:19,14.98332115,0.0002776,70.0,101.758,251.1154,108.9704,9.9991e-06,2.6e-07,0.0,0 STARLINK-5558,1 55631U 23021D   23348.70370294  .00000026  00000-0  99991-5 0  9990,2 55631  70.0000 101.7580 0002776 251.1154 108.9704 14.98332115 46075,6950.186,96.107,573.981,570.122,0.0
55631.0,STARLINK-5558,PAYLOAD,2023-12-15 12:06:57,14.98326607,0.0002659,70.0007,99.7391,251.5374,108.5496,-4.7047e-05,-6.54e-06,0.0,0 STARLINK-5558,1 55631U 23021D   23349.50482796 -.00000654  00000-0 -47047-4 0  9993,2 55631  70.0007  99.7391 0002659 251.5374 108.5496 14.98326607 45898,6950.203,96.107,573.916,570.22,0.0
55631.0,STARLINK-5558,PAYLOAD,2023-12-15 13:43:05,14.98325411,0.0002799,70.0004,99.571,257.5395,102.5451,-5.0507e-05,-6.95e-06,0.0,0 STARLINK-5558,1 55631U 23021D   23349.57158938 -.00000695  00000-0 -50507-4 0  9998,2 55631  70.0004  99.5710 0002799 257.5395 102.5451 14.98325411 46205,6950.207,96.107,574.017,570.127,0.0
55631.0,STARLINK-5558,PAYLOAD,2023-12-15 16:55:21,14.98324481,0.0002724,70.0005,99.2339,254.6364,105.4494,-7.0372e-05,-9.32e-06,0.0,0 STARLINK-5558,1 55631U 23021D   23349.70511070 -.00000932  00000-0 -70372-4 0  9999,2 55631  70.0005  99.2339 0002724 254.6364 105.4494 14.98324481 46229,6950.21,96.107,573.968,570.182,0.0
55631.0,STARLINK-5558,PAYLOAD,2023-12-16 12:08:57,14.98330769,0.0003099,69.9997,97.2127,266.5124,93.5681,-2.3133e-06,-1.21e-06,0.0,0 STARLINK-5558,1 55631U 23021D   23350.50622512 -.00000121  00000-0 -23133-5 0  9997,2 55631  69.9997  97.2127 0003099 266.5124  93.5681 14.98330769 46042,6950.191,96.107,574.209,569.902,0.0
55631.0,STARLINK-5558,PAYLOAD,2023-12-16 13:45:05,14.98330954,0.0002865,69.9995,97.0428,263.798,96.2853,1.2179e-05,5.2e-07,0.0,0 STARLINK-5558,1 55631U 23021D   23350.57298493  .00000052  00000-0  12179-4 0  9999,2 55631  69.9995  97.0428 0002865 263.7980  96.2853 14.98330954 46352,6950.19,96.107,574.046,570.064,0.0
55631.0,STARLINK-5558,PAYLOAD,2023-12-16 16:57:21,14.98335623,0.0003052,69.9994,96.7072,267.6421,92.4389,3.5517e-05,3.31e-06,0.0,0 STARLINK-5558,1 55631U 23021D   23350.70650100  .00000331  00000-0  35517-4 0  9992,2 55631  69.9994  96.7072 0003052 267.6421  92.4389 14.98335623 46376,6950.176,96.107,574.162,569.919,0.0
55631.0,STARLINK-5558,PAYLOAD,2023-12-17 10:34:51,14.98323902,0.0003106,69.9997,94.8557,271.5434,88.5369,1.6368e-05,1.02e-06,0.0,0 STARLINK-5558,1 55631U 23021D   23351.44086960  .00000102  00000-0  16368-4 0  9990,2 55631  69.9997  94.8557 0003106 271.5434  88.5369 14.98323902 46487,6950.212,96.107,574.235,569.918,0.0
55631.0,STARLINK-5558,PAYLOAD,2023-12-17 16:59:23,14.98328019,0.0002858,70.0004,94.1838,265.1137,94.9696,7.387e-05,7.88e-06,0.0,0 STARLINK-5558,1 55631U 23021D   23351.70790572  .00000788  00000-0  73870-4 0  9991,2 55631  70.0004  94.1838 0002858 265.1137  94.9696 14.98328019 46226,6950.199,96.107,574.05,570.078,0.0
55631.0,STARLINK-5558,PAYLOAD,2023-12-18 10:36:51,14.98339001,0.0002884,70.0003,92.3318,263.8865,96.1965,5.0189e-05,5.06e-06,0.0,0 STARLINK-5558,1 55631U 23021D   23352.44225706  .00000506  00000-0  50189-4 0  9991,2 55631  70.0003  92.3318 0002884 263.8865  96.1965 14.98339001 46338,6950.165,96.106,574.034,570.026,0.0
55631.0,STARLINK-5558,PAYLOAD,2023-12-18 13:49:07,14.98339406,0.0002875,70.0003,91.9951,263.4539,96.6293,5.4394e-05,5.56e-06,0.0,0 STARLINK-5558,1 55631U 23021D   23352.57577590  .00000556  00000-0  54394-4 0  9993,2 55631  70.0003  91.9951 0002875 263.4539  96.6293 14.98339406 46653,6950.164,96.106,574.027,570.031,0.0
55631.0,STARLINK-5558,PAYLOAD,2023-12-18 17:01:22,14.98341419,0.0003135,70.0002,91.6582,272.9729,87.1071,0.00012512,1.401e-05,0.0,0 STARLINK-5558,1 55631U 23021D   23352.70929210  .00001401  00000-0  12512-3 0  9993,2 55631  70.0002  91.6582 0003135 272.9729  87.1071 14.98341419 46673,6950.158,96.106,574.201,569.844,0.0
55631.0,STARLINK-5558,PAYLOAD,2023-12-19 10:38:52,14.98328078,0.00027,70.0013,89.8105,261.5391,98.5462,-2.8706e-05,-4.35e-06,0.0,0 STARLINK-5558,1 55631U 23021D   23353.44366355 -.00000435  00000-0 -28706-4 0  9991,2 55631  70.0013  89.8105 0002700 261.5391  98.5462 14.98328078 46486,6950.199,96.107,573.94,570.187,0.0
55631.0,STARLINK-5558,PAYLOAD,2023-12-19 13:51:08,14.98329016,0.0002885,70.0002,89.4714,261.7838,98.2994,-3.8577e-05,-5.53e-06,0.0,0 STARLINK-5558,1 55631U 23021D   23353.57718264 -.00000553  00000-0 -38577-4 0  9993,2 55631  70.0002  89.4714 0002885 261.7838  98.2994 14.98329016 46804,6950.196,96.107,574.066,570.056,0.0
55631.0,STARLINK-5558,PAYLOAD,2023-12-20 10:40:53,14.9832611,0.0002745,70.0006,87.2836,253.6798,106.4059,-0.00014861,-1.865e-05,0.0,0 STARLINK-5558,1 55631U 23021D   23354.44506831 -.00001865  00000-0 -14861-3 0  9991,2 55631  70.0006  87.2836 0002745 253.6798 106.4059 14.98326110 46636,6950.205,96.107,573.978,570.162,0.0
55631.0,STARLINK-5558,PAYLOAD,2023-12-20 13:53:10,14.98326113,0.0002689,70.0008,86.9473,251.0642,109.0225,-0.00012883,-1.63e-05,0.0,0 STARLINK-5558,1 55631U 23021D   23354.57858806 -.00001630  00000-0 -12883-3 0  9999,2 55631  70.0008  86.9473 0002689 251.0642 109.0225 14.98326113 46950,6950.205,96.107,573.939,570.201,0.0
55631.0,STARLINK-5558,PAYLOAD,2023-12-20 15:29:17,14.98327212,0.0002722,70.0008,86.7787,250.958,109.1284,-0.0001169,-1.487e-05,0.0,0 STARLINK-5558,1 55631U 23021D   23354.64534700 -.00001487  00000-0 -11690-3 0  9996,2 55631  70.0008  86.7787 0002722 250.9580 109.1284 14.98327212 46961,6950.202,96.107,573.958,570.175,0.0
55631.0,STARLINK-5558,PAYLOAD,2023-12-21 12:19:02,14.98329644,0.0002663,70.0007,84.5906,255.4255,104.6609,8.058e-05,8.69e-06,0.0,0 STARLINK-5558,1 55631U 23021D   23355.51322074  .00000869  00000-0  80580-4 0  9998,2 55631  70.0007  84.5906 0002663 255.4255 104.6609 14.98329644 46795,6950.194,96.107,573.91,570.208,0.0
55631.0,STARLINK-5558,PAYLOAD,2023-12-21 13:55:10,14.98332062,0.0002636,70.0005,84.4213,250.1558,109.9317,9.9748e-05,1.097e-05,0.0,0 STARLINK-5558,1 55631U 23021D   23355.57997840  .00001097  00000-0  99748-4 0  9993,2 55631  70.0005  84.4213 0002636 250.1558 109.9317 14.98332062 47109,6950.187,96.107,573.884,570.219,0.0
55631.0,STARLINK-5558,PAYLOAD,2023-12-21 15:31:18,14.98332743,0.0002635,70.0006,84.2533,249.9031,110.1845,0.00012873,1.443e-05,0.0,0 STARLINK-5558,1 55631U 23021D   23355.64673708  .00001443  00000-0  12873-3 0  9993,2 55631  70.0006  84.2533 0002635 249.9031 110.1845 14.98332743 47111,6950.184,96.107,573.881,570.218,0.0
55631.0,STARLINK-5558,PAYLOAD,2023-12-22 12:21:03,14.98323291,0.000259,70.0021,82.0671,230.0998,129.9933,7.1687e-05,7.62e-06,0.0,0 STARLINK-5558,1 55631U 23021D   23356.51462482  .00000762  00000-0  71687-4 0  9997,2 55631  70.0021  82.0671 0002590 230.0998 129.9933 14.98323291 46944,6950.214,96.107,573.879,570.279,0.0
55631.0,STARLINK-5558,PAYLOAD,2023-12-22 13:57:11,14.98322928,0.0002538,70.0019,81.8986,235.6464,124.4456,5.1188e-05,5.18e-06,0.0,0 STARLINK-5558,1 55631U 23021D   23356.58138609  .00000518  00000-0  51188-4 0  9998,2 55631  70.0019  81.8986 0002538 235.6464 124.4456 14.98322928 47259,6950.215,96.107,573.844,570.316,0.0
55631.0,STARLINK-5558,PAYLOAD,2023-12-22 15:33:19,14.98323406,0.0002577,70.0018,81.7302,234.2042,125.8878,7.114e-05,7.56e-06,0.0,0 STARLINK-5558,1 55631U 23021D   23356.64814547  .00000756  00000-0  71140-4 0  9991,2 55631  70.0018  81.7302 0002577 234.2042 125.8878 14.98323406 47265,6950.213,96.107,573.869,570.287,0.0
55631.0,STARLINK-5558,PAYLOAD,2023-12-23 13:59:12,14.98327453,0.000256,70.001,79.3717,257.1705,102.9168,-4.2318e-05,-5.98e-06,0.0,0 STARLINK-5558,1 55631U 23021D   23357.58278633 -.00000598  00000-0 -42318-4 0  9996,2 55631  70.0010  79.3717 0002560 257.1705 102.9168 14.98327453 47402,6950.201,96.107,573.845,570.287,0.0
55631.0,STARLINK-5558,PAYLOAD,2023-12-23 17:11:28,14.98333198,0.0002972,70.0002,79.0351,261.4544,98.6278,-6.2393e-06,-1.67e-06,0.0,0 STARLINK-5558,1 55631U 23021D   23357.71630169 -.00000167  00000-0 -62393-5 0  9995,2 55631  70.0002  79.0351 0002972 261.4544  98.6278 14.98333198 47125,6950.183,96.107,574.114,569.982,0.0
55631.0,STARLINK-5558,PAYLOAD,2023-12-24 14:01:12,14.98334067,0.0002723,70.0007,76.8462,257.7258,102.3596,7.3599e-05,7.85e-06,0.0,0 STARLINK-5558,1 55631U 23021D   23358.58417773  .00000785  00000-0  73599-4 0  9998,2 55631  70.0007  76.8462 0002723 257.7258 102.3596 14.98334067 47551,6950.18,96.107,573.938,570.153,0.0
55631.0,STARLINK-5558,PAYLOAD,2023-12-24 15:37:20,14.98334676,0.0002681,70.0009,76.6776,258.4014,101.6844,9.3009e-05,1.017e-05,0.0,0 STARLINK-5558,1 55631U 23021D   23358.65093718  .00001017  00000-0  93009-4 0  9992,2 55631  70.0009  76.6776 0002681 258.4014 101.6844 14.98334676 47565,6950.178,96.107,573.907,570.18,0.0
